CCSDS_OMM_VERS = 2.0
CREATION_DATE  = 
ORIGINATOR     = 

OBJECT_NAME    = ISS (ZARYA)
OBJECT_ID      = 1998-067A
CENTER_NAME    = EARTH
REF_FRAME      = TEME
TIME_SYSTEM    = UTC
MEAN_ELEMENT_THEORY = SGP/SGP4

EPOCH          = 2026-03-13T09:14:46.936608
MEAN_MOTION    = 15.48625615
ECCENTRICITY   = .00079096
INCLINATION    = 51.6324
RA_OF_ASC_NODE = 54.0842
ARG_OF_PERICENTER = 188.2233
MEAN_ANOMALY   = 171.8627

EPHEMERIS_TYPE = 0
CLASSIFICATION_TYPE = U
NORAD_CAT_ID   = 25544
ELEMENT_SET_NO = 999
REV_AT_EPOCH   = 55690
BSTAR          = .19895216E-3
MEAN_MOTION_DOT = .10392E-3
MEAN_MOTION_DDOT = 0

CCSDS_OMM_VERS = 2.0
CREATION_DATE  = 
ORIGINATOR     = 

OBJECT_NAME    = POISK
OBJECT_ID      = 2009-060A
CENTER_NAME    = EARTH
REF_FRAME      = TEME
TIME_SYSTEM    = UTC
MEAN_ELEMENT_THEORY = SGP/SGP4

EPOCH          = 2026-03-13T09:14:46.936608
MEAN_MOTION    = 15.48625615
ECCENTRICITY   = .00079096
INCLINATION    = 51.6324
RA_OF_ASC_NODE = 54.0842
ARG_OF_PERICENTER = 188.2233
MEAN_ANOMALY   = 171.8627

EPHEMERIS_TYPE = 0
CLASSIFICATION_TYPE = U
NORAD_CAT_ID   = 36086
ELEMENT_SET_NO = 999
REV_AT_EPOCH   = 55444
BSTAR          = .19895216E-3
MEAN_MOTION_DOT = .10392E-3
MEAN_MOTION_DDOT = 0

CCSDS_OMM_VERS = 2.0
CREATION_DATE  = 
ORIGINATOR     = 

OBJECT_NAME    = CSS (TIANHE)
OBJECT_ID      = 2021-035A
CENTER_NAME    = EARTH
REF_FRAME      = TEME
TIME_SYSTEM    = UTC
MEAN_ELEMENT_THEORY = SGP/SGP4

EPOCH          = 2026-03-13T13:18:56.691648
MEAN_MOTION    = 15.60878289
ECCENTRICITY   = .00067395
INCLINATION    = 41.4662
RA_OF_ASC_NODE = 184.6407
ARG_OF_PERICENTER = 297.0069
MEAN_ANOMALY   = 63.0081

EPHEMERIS_TYPE = 0
CLASSIFICATION_TYPE = U
NORAD_CAT_ID   = 48274
ELEMENT_SET_NO = 999
REV_AT_EPOCH   = 27821
BSTAR          = .35349736E-3
MEAN_MOTION_DOT = .30215E-3
MEAN_MOTION_DDOT = 0

CCSDS_OMM_VERS = 2.0
CREATION_DATE  = 
ORIGINATOR     = 

OBJECT_NAME    = ISS (NAUKA)
OBJECT_ID      = 2021-066A
CENTER_NAME    = EARTH
REF_FRAME      = TEME
TIME_SYSTEM    = UTC
MEAN_ELEMENT_THEORY = SGP/SGP4

EPOCH          = 2026-03-13T09:14:46.936608
MEAN_MOTION    = 15.48625615
ECCENTRICITY   = .00079096
INCLINATION    = 51.6324
RA_OF_ASC_NODE = 54.0842
ARG_OF_PERICENTER = 188.2233
MEAN_ANOMALY   = 171.8627

EPHEMERIS_TYPE = 0
CLASSIFICATION_TYPE = U
NORAD_CAT_ID   = 49044
ELEMENT_SET_NO = 999
REV_AT_EPOCH   = 55445
BSTAR          = .19895216E-3
MEAN_MOTION_DOT = .10392E-3
MEAN_MOTION_DDOT = 0

CCSDS_OMM_VERS = 2.0
CREATION_DATE  = 
ORIGINATOR     = 

OBJECT_NAME    = FREGAT DEB
OBJECT_ID      = 2011-037PF
CENTER_NAME    = EARTH
REF_FRAME      = TEME
TIME_SYSTEM    = UTC
MEAN_ELEMENT_THEORY = SGP/SGP4

EPOCH          = 2026-03-12T23:42:33.297696
MEAN_MOTION    = 12.40314724
ECCENTRICITY   = .09615585
INCLINATION    = 51.6525
RA_OF_ASC_NODE = 290.8604
ARG_OF_PERICENTER = 66.9712
MEAN_ANOMALY   = 302.9578

EPHEMERIS_TYPE = 0
CLASSIFICATION_TYPE = U
NORAD_CAT_ID   = 49271
ELEMENT_SET_NO = 999
REV_AT_EPOCH   = 21310
BSTAR          = .27402908E-1
MEAN_MOTION_DOT = .19193E-3
MEAN_MOTION_DDOT = 0

CCSDS_OMM_VERS = 2.0
CREATION_DATE  = 
ORIGINATOR     = 

OBJECT_NAME    = CSS (WENTIAN)
OBJECT_ID      = 2022-085A
CENTER_NAME    = EARTH
REF_FRAME      = TEME
TIME_SYSTEM    = UTC
MEAN_ELEMENT_THEORY = SGP/SGP4

EPOCH          = 2026-03-13T13:18:56.691648
MEAN_MOTION    = 15.60878289
ECCENTRICITY   = .00067395
INCLINATION    = 41.4662
RA_OF_ASC_NODE = 184.6407
ARG_OF_PERICENTER = 297.0069
MEAN_ANOMALY   = 63.0081

EPHEMERIS_TYPE = 0
CLASSIFICATION_TYPE = U
NORAD_CAT_ID   = 53239
ELEMENT_SET_NO = 999
REV_AT_EPOCH   = 27561
BSTAR          = .35349736E-3
MEAN_MOTION_DOT = .30215E-3
MEAN_MOTION_DDOT = 0

CCSDS_OMM_VERS = 2.0
CREATION_DATE  = 
ORIGINATOR     = 

OBJECT_NAME    = CSS (MENGTIAN)
OBJECT_ID      = 2022-143A
CENTER_NAME    = EARTH
REF_FRAME      = TEME
TIME_SYSTEM    = UTC
MEAN_ELEMENT_THEORY = SGP/SGP4

EPOCH          = 2026-03-13T13:18:56.691648
MEAN_MOTION    = 15.60878289
ECCENTRICITY   = .00067395
INCLINATION    = 41.4662
RA_OF_ASC_NODE = 184.6407
ARG_OF_PERICENTER = 297.0069
MEAN_ANOMALY   = 63.0081

EPHEMERIS_TYPE = 0
CLASSIFICATION_TYPE = U
NORAD_CAT_ID   = 54216
ELEMENT_SET_NO = 999
REV_AT_EPOCH   = 27558
BSTAR          = .35349736E-3
MEAN_MOTION_DOT = .30215E-3
MEAN_MOTION_DDOT = 0

CCSDS_OMM_VERS = 2.0
CREATION_DATE  = 
ORIGINATOR     = 

OBJECT_NAME    = PROGRESS-MS 31
OBJECT_ID      = 2025-146A
CENTER_NAME    = EARTH
REF_FRAME      = TEME
TIME_SYSTEM    = UTC
MEAN_ELEMENT_THEORY = SGP/SGP4

EPOCH          = 2026-03-13T09:14:46.936608
MEAN_MOTION    = 15.48625615
ECCENTRICITY   = .00079096
INCLINATION    = 51.6324
RA_OF_ASC_NODE = 54.0842
ARG_OF_PERICENTER = 188.2233
MEAN_ANOMALY   = 171.8627

EPHEMERIS_TYPE = 0
CLASSIFICATION_TYPE = U
NORAD_CAT_ID   = 64751
ELEMENT_SET_NO = 999
REV_AT_EPOCH   = 55446
BSTAR          = .19895216E-3
MEAN_MOTION_DOT = .10392E-3
MEAN_MOTION_DDOT = 0

CCSDS_OMM_VERS = 2.0
CREATION_DATE  = 
ORIGINATOR     = 

OBJECT_NAME    = TIANZHOU-9
OBJECT_ID      = 2025-149A
CENTER_NAME    = EARTH
REF_FRAME      = TEME
TIME_SYSTEM    = UTC
MEAN_ELEMENT_THEORY = SGP/SGP4

EPOCH          = 2026-03-13T13:18:56.691648
MEAN_MOTION    = 15.60878289
ECCENTRICITY   = .00067395
INCLINATION    = 41.4662
RA_OF_ASC_NODE = 184.6407
ARG_OF_PERICENTER = 297.0069
MEAN_ANOMALY   = 63.0081

EPHEMERIS_TYPE = 0
CLASSIFICATION_TYPE = U
NORAD_CAT_ID   = 64786
ELEMENT_SET_NO = 999
REV_AT_EPOCH   = 27559
BSTAR          = .35349736E-3
MEAN_MOTION_DOT = .30215E-3
MEAN_MOTION_DDOT = 0

CCSDS_OMM_VERS = 2.0
CREATION_DATE  = 
ORIGINATOR     = 

OBJECT_NAME    = PROGRESS-MS 32
OBJECT_ID      = 2025-204A
CENTER_NAME    = EARTH
REF_FRAME      = TEME
TIME_SYSTEM    = UTC
MEAN_ELEMENT_THEORY = SGP/SGP4

EPOCH          = 2026-03-13T09:14:46.936608
MEAN_MOTION    = 15.48625615
ECCENTRICITY   = .00079096
INCLINATION    = 51.6324
RA_OF_ASC_NODE = 54.0842
ARG_OF_PERICENTER = 188.2233
MEAN_ANOMALY   = 171.8627

EPHEMERIS_TYPE = 0
CLASSIFICATION_TYPE = U
NORAD_CAT_ID   = 65586
ELEMENT_SET_NO = 999
REV_AT_EPOCH   = 55450
BSTAR          = .19895216E-3
MEAN_MOTION_DOT = .10392E-3
MEAN_MOTION_DDOT = 0

CCSDS_OMM_VERS = 2.0
CREATION_DATE  = 
ORIGINATOR     = 

OBJECT_NAME    = CYGNUS NG-23
OBJECT_ID      = 2025-208A
CENTER_NAME    = EARTH
REF_FRAME      = TEME
TIME_SYSTEM    = UTC
MEAN_ELEMENT_THEORY = SGP/SGP4

EPOCH          = 2026-03-13T13:52:48.728064
MEAN_MOTION    = 15.49954474
ECCENTRICITY   = .00076181
INCLINATION    = 51.6322
RA_OF_ASC_NODE = 53.1239
ARG_OF_PERICENTER = 189.5476
MEAN_ANOMALY   = 170.5369

EPHEMERIS_TYPE = 0
CLASSIFICATION_TYPE = U
NORAD_CAT_ID   = 65616
ELEMENT_SET_NO = 999
REV_AT_EPOCH   = 19
BSTAR          = .12832402E-3
MEAN_MOTION_DOT = .6866E-4
MEAN_MOTION_DDOT = 0

CCSDS_OMM_VERS = 2.0
CREATION_DATE  = 
ORIGINATOR     = 

OBJECT_NAME    = YOTSUBA-KULOVER
OBJECT_ID      = 1998-067XN
CENTER_NAME    = EARTH
REF_FRAME      = TEME
TIME_SYSTEM    = UTC
MEAN_ELEMENT_THEORY = SGP/SGP4

EPOCH          = 2026-03-13T07:23:00.469248
MEAN_MOTION    = 15.82254050
ECCENTRICITY   = .00051453
INCLINATION    = 51.6207
RA_OF_ASC_NODE = 38.5032
ARG_OF_PERICENTER = 94.5757
MEAN_ANOMALY   = 265.5833

EPHEMERIS_TYPE = 0
CLASSIFICATION_TYPE = U
NORAD_CAT_ID   = 65941
ELEMENT_SET_NO = 999
REV_AT_EPOCH   = 2407
BSTAR          = .11333954E-2
MEAN_MOTION_DOT = .24525E-2
MEAN_MOTION_DDOT = 0

